CCSDS_OMM_VERS = 2.0
CREATION_DATE  = 
ORIGINATOR     = 

OBJECT_NAME    = 2026-052C
OBJECT_ID      = 2026-052C
CENTER_NAME    = EARTH
REF_FRAME      = TEME
TIME_SYSTEM    = UTC
MEAN_ELEMENT_THEORY = SGP/SGP4

EPOCH          = 2026-03-21T14:02:19.074336
MEAN_MOTION    = 15.10141020
ECCENTRICITY   = .00112635
INCLINATION    = 97.5376
RA_OF_ASC_NODE = 156.7523
ARG_OF_PERICENTER = 248.9590
MEAN_ANOMALY   = 111.0435

EPHEMERIS_TYPE = 0
CLASSIFICATION_TYPE = U
NORAD_CAT_ID   = 68200
ELEMENT_SET_NO = 999
REV_AT_EPOCH   = 81
BSTAR          = .36928225E-3
MEAN_MOTION_DOT = .5969E-4
MEAN_MOTION_DDOT = 0

CCSDS_OMM_VERS = 2.0
CREATION_DATE  = 
ORIGINATOR     = 

OBJECT_NAME    = 2026-052D
OBJECT_ID      = 2026-052D
CENTER_NAME    = EARTH
REF_FRAME      = TEME
TIME_SYSTEM    = UTC
MEAN_ELEMENT_THEORY = SGP/SGP4

EPOCH          = 2026-03-21T12:26:09.385152
MEAN_MOTION    = 15.10304782
ECCENTRICITY   = .0010415
INCLINATION    = 97.5376
RA_OF_ASC_NODE = 156.6850
ARG_OF_PERICENTER = 245.0906
MEAN_ANOMALY   = 114.9242

EPHEMERIS_TYPE = 0
CLASSIFICATION_TYPE = U
NORAD_CAT_ID   = 68201
ELEMENT_SET_NO = 999
REV_AT_EPOCH   = 81
BSTAR          = .57941464E-3
MEAN_MOTION_DOT = .9447E-4
MEAN_MOTION_DDOT = 0

CCSDS_OMM_VERS = 2.0
CREATION_DATE  = 
ORIGINATOR     = 

OBJECT_NAME    = 2026-052E
OBJECT_ID      = 2026-052E
CENTER_NAME    = EARTH
REF_FRAME      = TEME
TIME_SYSTEM    = UTC
MEAN_ELEMENT_THEORY = SGP/SGP4

EPOCH          = 2026-03-21T12:26:08.151360
MEAN_MOTION    = 15.10303568
ECCENTRICITY   = .00103504
INCLINATION    = 97.5375
RA_OF_ASC_NODE = 156.6857
ARG_OF_PERICENTER = 250.1730
MEAN_ANOMALY   = 109.8384

EPHEMERIS_TYPE = 0
CLASSIFICATION_TYPE = U
NORAD_CAT_ID   = 68202
ELEMENT_SET_NO = 999
REV_AT_EPOCH   = 81
BSTAR          = .42309177E-3
MEAN_MOTION_DOT = .6878E-4
MEAN_MOTION_DDOT = 0

CCSDS_OMM_VERS = 2.0
CREATION_DATE  = 
ORIGINATOR     = 

OBJECT_NAME    = 2026-052F
OBJECT_ID      = 2026-052F
CENTER_NAME    = EARTH
REF_FRAME      = TEME
TIME_SYSTEM    = UTC
MEAN_ELEMENT_THEORY = SGP/SGP4

EPOCH          = 2026-03-21T14:00:15.364224
MEAN_MOTION    = 15.10561346
ECCENTRICITY   = .00095763
INCLINATION    = 97.5368
RA_OF_ASC_NODE = 156.7581
ARG_OF_PERICENTER = 241.0714
MEAN_ANOMALY   = 118.9555

EPHEMERIS_TYPE = 0
CLASSIFICATION_TYPE = U
NORAD_CAT_ID   = 68203
ELEMENT_SET_NO = 999
REV_AT_EPOCH   = 82
BSTAR          = .60449038E-3
MEAN_MOTION_DOT = .9927E-4
MEAN_MOTION_DDOT = 0

CCSDS_OMM_VERS = 2.0
CREATION_DATE  = 
ORIGINATOR     = 

OBJECT_NAME    = 2026-052G
OBJECT_ID      = 2026-052G
CENTER_NAME    = EARTH
REF_FRAME      = TEME
TIME_SYSTEM    = UTC
MEAN_ELEMENT_THEORY = SGP/SGP4

EPOCH          = 2026-03-21T13:59:59.902944
MEAN_MOTION    = 15.10608956
ECCENTRICITY   = .0009161
INCLINATION    = 97.5378
RA_OF_ASC_NODE = 156.7516
ARG_OF_PERICENTER = 244.5273
MEAN_ANOMALY   = 115.5009

EPHEMERIS_TYPE = 0
CLASSIFICATION_TYPE = U
NORAD_CAT_ID   = 68204
ELEMENT_SET_NO = 999
REV_AT_EPOCH   = 82
BSTAR          = .51680325E-3
MEAN_MOTION_DOT = .8486E-4
MEAN_MOTION_DDOT = 0

CCSDS_OMM_VERS = 2.0
CREATION_DATE  = 
ORIGINATOR     = 

OBJECT_NAME    = KZ-11 R/B
OBJECT_ID      = 2026-052H
CENTER_NAME    = EARTH
REF_FRAME      = TEME
TIME_SYSTEM    = UTC
MEAN_ELEMENT_THEORY = SGP/SGP4

EPOCH          = 2026-03-21T14:33:44.165088
MEAN_MOTION    = 14.66767940
ECCENTRICITY   = .05485797
INCLINATION    = 97.3422
RA_OF_ASC_NODE = 156.6480
ARG_OF_PERICENTER = 355.4396
MEAN_ANOMALY   = 4.1921

EPHEMERIS_TYPE = 0
CLASSIFICATION_TYPE = U
NORAD_CAT_ID   = 68205
ELEMENT_SET_NO = 999
REV_AT_EPOCH   = 80
BSTAR          = .67654705E-3
MEAN_MOTION_DOT = .45717E-3
MEAN_MOTION_DDOT = .2015935E-5

CCSDS_OMM_VERS = 2.0
CREATION_DATE  = 
ORIGINATOR     = 

OBJECT_NAME    = 2026-052J
OBJECT_ID      = 2026-052J
CENTER_NAME    = EARTH
REF_FRAME      = TEME
TIME_SYSTEM    = UTC
MEAN_ELEMENT_THEORY = SGP/SGP4

EPOCH          = 2026-03-21T14:33:02.698272
MEAN_MOTION    = 14.67103442
ECCENTRICITY   = .05477042
INCLINATION    = 97.3425
RA_OF_ASC_NODE = 156.6483
ARG_OF_PERICENTER = 355.5227
MEAN_ANOMALY   = 4.1184

EPHEMERIS_TYPE = 0
CLASSIFICATION_TYPE = U
NORAD_CAT_ID   = 68206
ELEMENT_SET_NO = 999
REV_AT_EPOCH   = 80
BSTAR          = .11958763E-2
MEAN_MOTION_DOT = .81856E-3
MEAN_MOTION_DDOT = .2726141E-5

CCSDS_OMM_VERS = 2.0
CREATION_DATE  = 
ORIGINATOR     = 

OBJECT_NAME    = TEN-KOH 2
OBJECT_ID      = 2025-241B
CENTER_NAME    = EARTH
REF_FRAME      = TEME
TIME_SYSTEM    = UTC
MEAN_ELEMENT_THEORY = SGP/SGP4

EPOCH          = 2026-03-20T23:23:17.497248
MEAN_MOTION    = 15.22578809
ECCENTRICITY   = .00044402
INCLINATION    = 51.6356
RA_OF_ASC_NODE = 19.2011
ARG_OF_PERICENTER = 194.7242
MEAN_ANOMALY   = 165.3606

EPHEMERIS_TYPE = 0
CLASSIFICATION_TYPE = U
NORAD_CAT_ID   = 68261
ELEMENT_SET_NO = 999
REV_AT_EPOCH   = 146
BSTAR          = .37783443E-3
MEAN_MOTION_DOT = .8575E-4
MEAN_MOTION_DDOT = 0

